{"type": "FeatureCollection", "features": [{"type": "Feature", "properties": {"norad_id": 22490, "name": "SCD 1", "group": "resource", "lat": -14.286480203376, "lon": -95.75750845322975, "alt_km": 713.0871967464009, "timestamp": "2025-12-09T16:56:36.236414+00:00", "meta": {"OBJECT_NAME": "SCD 1", "OBJECT_ID": "1993-009B", "EPOCH": "2025-12-09T04:23:05.110656", "MEAN_MOTION": 14.45994752, "ECCENTRICITY": 0.00417245, "INCLINATION": 24.9704, "RA_OF_ASC_NODE": 300.645, "ARG_OF_PERICENTER": 287.2095, "MEAN_ANOMALY": 187.2931, "EPHEMERIS_TYPE": 0, "CLASSIFICATION_TYPE": "U", "NORAD_CAT_ID": 22490, "ELEMENT_SET_NO": 999, "REV_AT_EPOCH": 73358, "BSTAR": 0.00014848469, "MEAN_MOTION_DOT": 7.29e-06, "MEAN_MOTION_DDOT": 0}, "tle": {"line1": "1 22490U 93009B   25343.18269804  .00000729  00000+0  14848-3 0  9998", "line2": "2 22490  24.9704 300.6450 0041724 287.2095 187.2931 14.45994752733581"}}, "geometry": {"type": "Point", "coordinates": [-95.75750845322975, -14.286480203376]}}, {"type": "Feature", "properties": {"norad_id": 25397, "name": "TECHSAT 1B (GO-32)", "group": "resource", "lat": 75.47033037109782, "lon": -175.49457143001015, "alt_km": 802.2090922000089, "timestamp": "2025-12-09T16:56:36.236446+00:00", "meta": {"OBJECT_NAME": "TECHSAT 1B (GO-32)", "OBJECT_ID": "1998-043D", "EPOCH": "2025-12-09T11:24:41.103072", "MEAN_MOTION": 14.24375717, "ECCENTRICITY": 0.0002137, "INCLINATION": 98.9917, "RA_OF_ASC_NODE": 326.6122, "ARG_OF_PERICENTER": 62.6184, "MEAN_ANOMALY": 297.5211, "EPHEMERIS_TYPE": 0, "CLASSIFICATION_TYPE": "U", "NORAD_CAT_ID": 25397, "ELEMENT_SET_NO": 999, "REV_AT_EPOCH": 42432, "BSTAR": 0.00010363, "MEAN_MOTION_DOT": 1.93e-06, "MEAN_MOTION_DDOT": 0}, "tle": {"line1": "1 25397U 98043D   25343.47547573  .00000193  00000+0  10363-3 0  9997", "line2": "2 25397  98.9917 326.6122 0002137  62.6184 297.5211 14.24375717424326"}}, "geometry": {"type": "Point", "coordinates": [-175.49457143001015, 75.47033037109782]}}, {"type": "Feature", "properties": {"norad_id": 25504, "name": "SCD 2", "group": "resource", "lat": 1.0697239350741836, "lon": 162.90357845774992, "alt_km": 736.7687986232922, "timestamp": "2025-12-09T16:56:36.236462+00:00", "meta": {"OBJECT_NAME": "SCD 2", "OBJECT_ID": "1998-060A", "EPOCH": "2025-12-08T21:41:28.157568", "MEAN_MOTION": 14.45419789, "ECCENTRICITY": 0.0016589, "INCLINATION": 24.9931, "RA_OF_ASC_NODE": 165.5501, "ARG_OF_PERICENTER": 272.5598, "MEAN_ANOMALY": 227.2256, "EPHEMERIS_TYPE": 0, "CLASSIFICATION_TYPE": "U", "NORAD_CAT_ID": 25504, "ELEMENT_SET_NO": 999, "REV_AT_EPOCH": 43276, "BSTAR": 0.00010877, "MEAN_MOTION_DOT": 5.72e-06, "MEAN_MOTION_DDOT": 0}, "tle": {"line1": "1 25504U 98060A   25342.90379812  .00000572  00000+0  10877-3 0  9993", "line2": "2 25504  24.9931 165.5501 0016589 272.5598 227.2256 14.45419789432766"}}, "geometry": {"type": "Point", "coordinates": [162.90357845774992, 1.0697239350741836]}}, {"type": "Feature", "properties": {"norad_id": 25757, "name": "DLR-TUBSAT", "group": "resource", "lat": 14.37585559628804, "lon": -34.11155212916445, "alt_km": 728.5239777868092, "timestamp": "2025-12-09T16:56:36.236475+00:00", "meta": {"OBJECT_NAME": "DLR-TUBSAT", "OBJECT_ID": "1999-029B", "EPOCH": "2025-12-09T11:54:57.936960", "MEAN_MOTION": 14.52355882, "ECCENTRICITY": 0.0013715, "INCLINATION": 98.656, "RA_OF_ASC_NODE": 327.9102, "ARG_OF_PERICENTER": 202.9117, "MEAN_ANOMALY": 157.1467, "EPHEMERIS_TYPE": 0, "CLASSIFICATION_TYPE": "U", "NORAD_CAT_ID": 25757, "ELEMENT_SET_NO": 999, "REV_AT_EPOCH": 40571, "BSTAR": 8.2535e-05, "MEAN_MOTION_DOT": 2.88e-06, "MEAN_MOTION_DDOT": 0}, "tle": {"line1": "1 25757U 99029B   25343.49650390  .00000288  00000+0  82535-4 0  9992", "line2": "2 25757  98.6560 327.9102 0013715 202.9117 157.1467 14.52355882405716"}}, "geometry": {"type": "Point", "coordinates": [-34.11155212916445, 14.37585559628804]}}, {"type": "Feature", "properties": {"norad_id": 25994, "name": "TERRA", "group": "resource", "lat": -15.164276909684988, "lon": 37.67935829900724, "alt_km": 696.0966826270233, "timestamp": "2025-12-09T16:56:36.236487+00:00", "meta": {"OBJECT_NAME": "TERRA", "OBJECT_ID": "1999-068A", "EPOCH": "2025-12-09T12:29:08.334240", "MEAN_MOTION": 14.60896727, "ECCENTRICITY": 0.0003578, "INCLINATION": 97.9753, "RA_OF_ASC_NODE": 35.3229, "ARG_OF_PERICENTER": 100.6811, "MEAN_ANOMALY": 347.8952, "EPHEMERIS_TYPE": 0, "CLASSIFICATION_TYPE": "U", "NORAD_CAT_ID": 25994, "ELEMENT_SET_NO": 999, "REV_AT_EPOCH": 38191, "BSTAR": 0.00018473, "MEAN_MOTION_DOT": 8.59e-06, "MEAN_MOTION_DDOT": 0}, "tle": {"line1": "1 25994U 99068A   25343.52023535  .00000859  00000+0  18473-3 0  9990", "line2": "2 25994  97.9753  35.3229 0003578 100.6811 347.8952 14.60896727381915"}}, "geometry": {"type": "Point", "coordinates": [37.67935829900724, -15.164276909684988]}}, {"type": "Feature", "properties": {"norad_id": 27004, "name": "MAROC-TUBSAT", "group": "resource", "lat": -60.291712641501434, "lon": -45.51810947033966, "alt_km": 993.1140941448384, "timestamp": "2025-12-09T16:56:36.236500+00:00", "meta": {"OBJECT_NAME": "MAROC-TUBSAT", "OBJECT_ID": "2001-056D", "EPOCH": "2025-12-09T10:46:29.280000", "MEAN_MOTION": 13.70252668, "ECCENTRICITY": 0.001909, "INCLINATION": 99.7912, "RA_OF_ASC_NODE": 151.8363, "ARG_OF_PERICENTER": 268.8974, "MEAN_ANOMALY": 145.7319, "EPHEMERIS_TYPE": 0, "CLASSIFICATION_TYPE": "U", "NORAD_CAT_ID": 27004, "ELEMENT_SET_NO": 999, "REV_AT_EPOCH": 20020, "BSTAR": 4.7568e-05, "MEAN_MOTION_DOT": -5e-08, "MEAN_MOTION_DDOT": 0}, "tle": {"line1": "1 27004U 01056D   25343.44895000 -.00000005  00000+0  47568-4 0  9991", "line2": "2 27004  99.7912 151.8363 0019090 268.8974 145.7319 13.70252668200206"}}, "geometry": {"type": "Point", "coordinates": [-45.51810947033966, -60.291712641501434]}}, {"type": "Feature", "properties": {"norad_id": 27424, "name": "AQUA", "group": "resource", "lat": -29.69705688476631, "lon": 119.69955434320836, "alt_km": 693.3738901214219, "timestamp": "2025-12-09T16:56:36.236512+00:00", "meta": {"OBJECT_NAME": "AQUA", "OBJECT_ID": "2002-022A", "EPOCH": "2025-12-09T11:33:29.831328", "MEAN_MOTION": 14.61797742, "ECCENTRICITY": 9.67e-05, "INCLINATION": 98.4034, "RA_OF_ASC_NODE": 304.3078, "ARG_OF_PERICENTER": 114.1895, "MEAN_ANOMALY": 355.6485, "EPHEMERIS_TYPE": 0, "CLASSIFICATION_TYPE": "U", "NORAD_CAT_ID": 27424, "ELEMENT_SET_NO": 999, "REV_AT_EPOCH": 25555, "BSTAR": 0.00040337, "MEAN_MOTION_DOT": 1.964e-05, "MEAN_MOTION_DDOT": 0}, "tle": {"line1": "1 27424U 02022A   25343.48159527  .00001964  00000+0  40337-3 0  9992", "line2": "2 27424  98.4034 304.3078 0000967 114.1895 355.6485 14.61797742255551"}}, "geometry": {"type": "Point", "coordinates": [119.69955434320836, -29.69705688476631]}}, {"type": "Feature", "properties": {"norad_id": 28051, "name": "IRS-P6 (RESOURCESAT-1)", "group": "resource", "lat": -4.823883068255386, "lon": 24.95201088737172, "alt_km": 819.2643295600983, "timestamp": "2025-12-09T16:56:36.236523+00:00", "meta": {"OBJECT_NAME": "IRS-P6 (RESOURCESAT-1)", "OBJECT_ID": "2003-046A", "EPOCH": "2025-12-09T12:35:08.295648", "MEAN_MOTION": 14.36073749, "ECCENTRICITY": 0.0063894, "INCLINATION": 98.2176, "RA_OF_ASC_NODE": 24.0801, "ARG_OF_PERICENTER": 190.3477, "MEAN_ANOMALY": 306.5466, "EPHEMERIS_TYPE": 0, "CLASSIFICATION_TYPE": "U", "NORAD_CAT_ID": 28051, "ELEMENT_SET_NO": 999, "REV_AT_EPOCH": 15330, "BSTAR": 0.00021526, "MEAN_MOTION_DOT": 6e-06, "MEAN_MOTION_DDOT": 0}, "tle": {"line1": "1 28051U 03046A   25343.52440157  .00000600  00000+0  21526-3 0  9998", "line2": "2 28051  98.2176  24.0801 0063894 190.3477 306.5466 14.36073749153303"}}, "geometry": {"type": "Point", "coordinates": [24.95201088737172, -4.823883068255386]}}, {"type": "Feature", "properties": {"norad_id": 28220, "name": "SHIYAN-1 (SY-1)", "group": "resource", "lat": -54.08034087128167, "lon": 56.10683895483597, "alt_km": 485.38987954914865, "timestamp": "2025-12-09T16:56:36.236535+00:00", "meta": {"OBJECT_NAME": "SHIYAN-1 (SY-1)", "OBJECT_ID": "2004-012A", "EPOCH": "2025-12-09T10:53:45.982752", "MEAN_MOTION": 15.28007061, "ECCENTRICITY": 0.0005849, "INCLINATION": 97.8933, "RA_OF_ASC_NODE": 44.7984, "ARG_OF_PERICENTER": 338.3085, "MEAN_ANOMALY": 21.7905, "EPHEMERIS_TYPE": 0, "CLASSIFICATION_TYPE": "U", "NORAD_CAT_ID": 28220, "ELEMENT_SET_NO": 999, "REV_AT_EPOCH": 18206, "BSTAR": 0.00068257, "MEAN_MOTION_DOT": 0.00018604, "MEAN_MOTION_DDOT": 0}, "tle": {"line1": "1 28220U 04012A   25343.45400443  .00018604  00000+0  68257-3 0  9991", "line2": "2 28220  97.8933  44.7984 0005849 338.3085  21.7905 15.28007061182068"}}, "geometry": {"type": "Point", "coordinates": [56.10683895483597, -54.08034087128167]}}, {"type": "Feature", "properties": {"norad_id": 28376, "name": "AURA", "group": "resource", "lat": -9.381481743025383, "lon": -64.69634315864737, "alt_km": 694.4493403410252, "timestamp": "2025-12-09T16:56:36.236546+00:00", "meta": {"OBJECT_NAME": "AURA", "OBJECT_ID": "2004-026A", "EPOCH": "2025-12-09T10:24:42.022080", "MEAN_MOTION": 14.60935335, "ECCENTRICITY": 0.0001183, "INCLINATION": 98.3181, "RA_OF_ASC_NODE": 293.6452, "ARG_OF_PERICENTER": 93.754, "MEAN_ANOMALY": 266.3795, "EPHEMERIS_TYPE": 0, "CLASSIFICATION_TYPE": "U", "NORAD_CAT_ID": 28376, "ELEMENT_SET_NO": 999, "REV_AT_EPOCH": 13850, "BSTAR": 0.00041133, "MEAN_MOTION_DOT": 1.967e-05, "MEAN_MOTION_DDOT": 0}, "tle": {"line1": "1 28376U 04026A   25343.43381970  .00001967  00000+0  41133-3 0  9997", "line2": "2 28376  98.3181 293.6452 0001183  93.7540 266.3795 14.60935335138504"}}, "geometry": {"type": "Point", "coordinates": [-64.69634315864737, -9.381481743025383]}}]}